CCSDS_OMM_VERS = 2.0
CREATION_DATE  = 
ORIGINATOR     = 

OBJECT_NAME    = HULIANWANG DIGUI-113
OBJECT_ID      = 2025-285J
CENTER_NAME    = EARTH
REF_FRAME      = TEME
TIME_SYSTEM    = UTC
MEAN_ELEMENT_THEORY = SGP/SGP4

EPOCH          = 2025-12-14T23:21:49.781376
MEAN_MOTION    = 14.06057190
ECCENTRICITY   = .00054288
INCLINATION    = 50.0086
RA_OF_ASC_NODE = 108.1137
ARG_OF_PERICENTER = 303.7037
MEAN_ANOMALY   = 56.3350

EPHEMERIS_TYPE = 0
CLASSIFICATION_TYPE = U
NORAD_CAT_ID   = 66923
ELEMENT_SET_NO = 999
REV_AT_EPOCH   = 122
BSTAR          = .11078091E-3
MEAN_MOTION_DOT = .31E-6
MEAN_MOTION_DDOT = 0

CCSDS_OMM_VERS = 2.0
CREATION_DATE  = 
ORIGINATOR     = 

OBJECT_NAME    = CZ-8A R/B
OBJECT_ID      = 2025-285K
CENTER_NAME    = EARTH
REF_FRAME      = TEME
TIME_SYSTEM    = UTC
MEAN_ELEMENT_THEORY = SGP/SGP4

EPOCH          = 2025-12-14T18:10:03.489312
MEAN_MOTION    = 14.30502766
ECCENTRICITY   = .01193243
INCLINATION    = 50.0068
RA_OF_ASC_NODE = 107.5676
ARG_OF_PERICENTER = 113.8487
MEAN_ANOMALY   = 247.4987

EPHEMERIS_TYPE = 0
CLASSIFICATION_TYPE = U
NORAD_CAT_ID   = 66924
ELEMENT_SET_NO = 999
REV_AT_EPOCH   = 121
BSTAR          = .66868033E-4
MEAN_MOTION_DOT = .22E-6
MEAN_MOTION_DDOT = 0

CCSDS_OMM_VERS = 2.0
CREATION_DATE  = 
ORIGINATOR     = 

OBJECT_NAME    = STARLINK-35945
OBJECT_ID      = 2025-286A
CENTER_NAME    = EARTH
REF_FRAME      = TEME
TIME_SYSTEM    = UTC
MEAN_ELEMENT_THEORY = SGP/SGP4

EPOCH          = 2025-12-14T20:00:06.000192
MEAN_MOTION    = 15.92441844
ECCENTRICITY   = .00006998
INCLINATION    = 53.1569
RA_OF_ASC_NODE = 40.0621
ARG_OF_PERICENTER = 78.1680
MEAN_ANOMALY   = 178.7455

EPHEMERIS_TYPE = 0
CLASSIFICATION_TYPE = U
NORAD_CAT_ID   = 66925
ELEMENT_SET_NO = 999
REV_AT_EPOCH   = 232
BSTAR          = -.36422534E-2
MEAN_MOTION_DOT = -.1264366E-1
MEAN_MOTION_DDOT = .47051323E-3

CCSDS_OMM_VERS = 2.0
CREATION_DATE  = 
ORIGINATOR     = 

OBJECT_NAME    = STARLINK-35942
OBJECT_ID      = 2025-286B
CENTER_NAME    = EARTH
REF_FRAME      = TEME
TIME_SYSTEM    = UTC
MEAN_ELEMENT_THEORY = SGP/SGP4

EPOCH          = 2025-12-14T20:00:06.000192
MEAN_MOTION    = 15.92584212
ECCENTRICITY   = .00006575
INCLINATION    = 53.1568
RA_OF_ASC_NODE = 40.0541
ARG_OF_PERICENTER = 71.3447
MEAN_ANOMALY   = 189.2625

EPHEMERIS_TYPE = 0
CLASSIFICATION_TYPE = U
NORAD_CAT_ID   = 66926
ELEMENT_SET_NO = 999
REV_AT_EPOCH   = 233
BSTAR          = -.36724416E-2
MEAN_MOTION_DOT = -.1284122E-1
MEAN_MOTION_DDOT = .48465618E-3

CCSDS_OMM_VERS = 2.0
CREATION_DATE  = 
ORIGINATOR     = 

OBJECT_NAME    = STARLINK-35943
OBJECT_ID      = 2025-286C
CENTER_NAME    = EARTH
REF_FRAME      = TEME
TIME_SYSTEM    = UTC
MEAN_ELEMENT_THEORY = SGP/SGP4

EPOCH          = 2025-12-14T20:00:06.000192
MEAN_MOTION    = 15.92641958
ECCENTRICITY   = .00007602
INCLINATION    = 53.1569
RA_OF_ASC_NODE = 40.0510
ARG_OF_PERICENTER = 72.1063
MEAN_ANOMALY   = 190.1200

EPHEMERIS_TYPE = 0
CLASSIFICATION_TYPE = U
NORAD_CAT_ID   = 66927
ELEMENT_SET_NO = 999
REV_AT_EPOCH   = 233
BSTAR          = -.36501304E-2
MEAN_MOTION_DOT = -.1280233E-1
MEAN_MOTION_DDOT = .4822585E-3

CCSDS_OMM_VERS = 2.0
CREATION_DATE  = 
ORIGINATOR     = 

OBJECT_NAME    = STARLINK-35944
OBJECT_ID      = 2025-286D
CENTER_NAME    = EARTH
REF_FRAME      = TEME
TIME_SYSTEM    = UTC
MEAN_ELEMENT_THEORY = SGP/SGP4

EPOCH          = 2025-12-14T20:00:06.000192
MEAN_MOTION    = 15.92518752
ECCENTRICITY   = .00007839
INCLINATION    = 53.1569
RA_OF_ASC_NODE = 40.0576
ARG_OF_PERICENTER = 71.6446
MEAN_ANOMALY   = 187.3065

EPHEMERIS_TYPE = 0
CLASSIFICATION_TYPE = U
NORAD_CAT_ID   = 66928
ELEMENT_SET_NO = 999
REV_AT_EPOCH   = 233
BSTAR          = -.36569365E-2
MEAN_MOTION_DOT = -.1274459E-1
MEAN_MOTION_DDOT = .47773107E-3

CCSDS_OMM_VERS = 2.0
CREATION_DATE  = 
ORIGINATOR     = 

OBJECT_NAME    = STARLINK-36169
OBJECT_ID      = 2025-286E
CENTER_NAME    = EARTH
REF_FRAME      = TEME
TIME_SYSTEM    = UTC
MEAN_ELEMENT_THEORY = SGP/SGP4

EPOCH          = 2025-12-14T20:00:06.000192
MEAN_MOTION    = 15.92704816
ECCENTRICITY   = .00008264
INCLINATION    = 53.1568
RA_OF_ASC_NODE = 40.0471
ARG_OF_PERICENTER = 68.6667
MEAN_ANOMALY   = 195.3348

EPHEMERIS_TYPE = 0
CLASSIFICATION_TYPE = U
NORAD_CAT_ID   = 66929
ELEMENT_SET_NO = 999
REV_AT_EPOCH   = 233
BSTAR          = -.36163289E-2
MEAN_MOTION_DOT = -.1272649E-1
MEAN_MOTION_DDOT = .4773627E-3

CCSDS_OMM_VERS = 2.0
CREATION_DATE  = 
ORIGINATOR     = 

OBJECT_NAME    = STARLINK-36206
OBJECT_ID      = 2025-286F
CENTER_NAME    = EARTH
REF_FRAME      = TEME
TIME_SYSTEM    = UTC
MEAN_ELEMENT_THEORY = SGP/SGP4

EPOCH          = 2025-12-14T20:00:06.000192
MEAN_MOTION    = 15.92771068
ECCENTRICITY   = .00007545
INCLINATION    = 53.1568
RA_OF_ASC_NODE = 40.0437
ARG_OF_PERICENTER = 69.6179
MEAN_ANOMALY   = 195.9587

EPHEMERIS_TYPE = 0
CLASSIFICATION_TYPE = U
NORAD_CAT_ID   = 66930
ELEMENT_SET_NO = 999
REV_AT_EPOCH   = 233
BSTAR          = -.36510499E-2
MEAN_MOTION_DOT = -.1289131E-1
MEAN_MOTION_DDOT = .48899616E-3

CCSDS_OMM_VERS = 2.0
CREATION_DATE  = 
ORIGINATOR     = 

OBJECT_NAME    = STARLINK-36130
OBJECT_ID      = 2025-286G
CENTER_NAME    = EARTH
REF_FRAME      = TEME
TIME_SYSTEM    = UTC
MEAN_ELEMENT_THEORY = SGP/SGP4

EPOCH          = 2025-12-14T20:00:06.000192
MEAN_MOTION    = 15.92837455
ECCENTRICITY   = .00008728
INCLINATION    = 53.1567
RA_OF_ASC_NODE = 40.0400
ARG_OF_PERICENTER = 68.4270
MEAN_ANOMALY   = 198.9814

EPHEMERIS_TYPE = 0
CLASSIFICATION_TYPE = U
NORAD_CAT_ID   = 66931
ELEMENT_SET_NO = 999
REV_AT_EPOCH   = 233
BSTAR          = -.36303953E-2
MEAN_MOTION_DOT = -.1286348E-1
MEAN_MOTION_DDOT = .48739221E-3

CCSDS_OMM_VERS = 2.0
CREATION_DATE  = 
ORIGINATOR     = 

OBJECT_NAME    = STARLINK-36177
OBJECT_ID      = 2025-286H
CENTER_NAME    = EARTH
REF_FRAME      = TEME
TIME_SYSTEM    = UTC
MEAN_ELEMENT_THEORY = SGP/SGP4

EPOCH          = 2025-12-14T20:00:06.000192
MEAN_MOTION    = 15.92912435
ECCENTRICITY   = .00009172
INCLINATION    = 53.1567
RA_OF_ASC_NODE = 40.0361
ARG_OF_PERICENTER = 66.6456
MEAN_ANOMALY   = 202.5426

EPHEMERIS_TYPE = 0
CLASSIFICATION_TYPE = U
NORAD_CAT_ID   = 66932
ELEMENT_SET_NO = 999
REV_AT_EPOCH   = 233
BSTAR          = -.36702241E-2
MEAN_MOTION_DOT = -.1305362E-1
MEAN_MOTION_DDOT = .50096144E-3

CCSDS_OMM_VERS = 2.0
CREATION_DATE  = 
ORIGINATOR     = 

OBJECT_NAME    = STARLINK-36157
OBJECT_ID      = 2025-286J
CENTER_NAME    = EARTH
REF_FRAME      = TEME
TIME_SYSTEM    = UTC
MEAN_ELEMENT_THEORY = SGP/SGP4

EPOCH          = 2025-12-14T20:00:06.000192
MEAN_MOTION    = 15.92979235
ECCENTRICITY   = .00007263
INCLINATION    = 53.1567
RA_OF_ASC_NODE = 40.0326
ARG_OF_PERICENTER = 71.8138
MEAN_ANOMALY   = 199.1235

EPHEMERIS_TYPE = 0
CLASSIFICATION_TYPE = U
NORAD_CAT_ID   = 66933
ELEMENT_SET_NO = 999
REV_AT_EPOCH   = 233
BSTAR          = -.36688179E-2
MEAN_MOTION_DOT = -.1309376E-1
MEAN_MOTION_DDOT = .50410113E-3

CCSDS_OMM_VERS = 2.0
CREATION_DATE  = 
ORIGINATOR     = 

OBJECT_NAME    = STARLINK-36153
OBJECT_ID      = 2025-286K
CENTER_NAME    = EARTH
REF_FRAME      = TEME
TIME_SYSTEM    = UTC
MEAN_ELEMENT_THEORY = SGP/SGP4

EPOCH          = 2025-12-14T20:00:06.000192
MEAN_MOTION    = 15.93053674
ECCENTRICITY   = .00007006
INCLINATION    = 53.1566
RA_OF_ASC_NODE = 40.0286
ARG_OF_PERICENTER = 68.4195
MEAN_ANOMALY   = 204.2826

EPHEMERIS_TYPE = 0
CLASSIFICATION_TYPE = U
NORAD_CAT_ID   = 66934
ELEMENT_SET_NO = 999
REV_AT_EPOCH   = 233
BSTAR          = -.37031267E-2
MEAN_MOTION_DOT = -.1326588E-1
MEAN_MOTION_DDOT = .51661802E-3

