HULIANWANG DIGUI-113    
1 66923U 25285J   25348.97349284  .00000031  00000+0  11078-3 0  9999
2 66923  50.0086 108.1137 0005428 303.7037  56.3350 14.06057190  1220
CZ-8A R/B               
1 66924U 25285K   25348.75698483  .00000022  00000+0  66868-4 0  9992
2 66924  50.0068 107.5676 0119324 113.8487 247.4987 14.30502766  1211
STARLINK-35945          
1 66925U 25286A   25348.83340278 -.01264366  47051-3 -36423-2 0  9998
2 66925  53.1569  40.0621 0000699  78.1680 178.7455 15.92441844  2322
STARLINK-35942          
1 66926U 25286B   25348.83340278 -.01284122  48466-3 -36724-2 0  9996
2 66926  53.1568  40.0541 0000657  71.3447 189.2625 15.92584212  2337
STARLINK-35943          
1 66927U 25286C   25348.83340278 -.01280233  48226-3 -36501-2 0  9993
2 66927  53.1569  40.0510 0000760  72.1063 190.1200 15.92641958  2334
STARLINK-35944          
1 66928U 25286D   25348.83340278 -.01274459  47773-3 -36569-2 0  9997
2 66928  53.1569  40.0576 0000783  71.6446 187.3065 15.92518752  2333
STARLINK-36169          
1 66929U 25286E   25348.83340278 -.01272649  47736-3 -36163-2 0  9996
2 66929  53.1568  40.0471 0000826  68.6667 195.3348 15.92704816  2337
STARLINK-36206          
1 66930U 25286F   25348.83340278 -.01289131  48900-3 -36510-2 0  9992
2 66930  53.1568  40.0437 0000754  69.6179 195.9587 15.92771068  2334
STARLINK-36130          
1 66931U 25286G   25348.83340278 -.01286348  48739-3 -36304-2 0  9991
2 66931  53.1567  40.0400 0000872  68.4270 198.9814 15.92837455  2333
STARLINK-36177          
1 66932U 25286H   25348.83340278 -.01305362  50096-3 -36702-2 0  9991
2 66932  53.1567  40.0361 0000917  66.6456 202.5426 15.92912435  2339
STARLINK-36157          
1 66933U 25286J   25348.83340278 -.01309376  50410-3 -36688-2 0  9994
2 66933  53.1567  40.0326 0000726  71.8138 199.1235 15.92979235  2334
STARLINK-36153          
1 66934U 25286K   25348.83340278 -.01326588  51662-3 -37031-2 0  9992
2 66934  53.1566  40.0286 0000700  68.4195 204.2826 15.93053674  2331
